ONEWEB-0271             
1 48989U 21060Y   24251.60074722  .00000234  00000+0  57899-3 0  9998
2 48989  87.9176 357.7216 0001646 113.2640 246.8665 13.16597952154457
ONEWEB-0272             
1 48990U 21060Z   24251.54692822  .00000496  00000+0  12647-2 0  9991
2 48990  87.9176 357.7619 0001648 107.6856 252.4455 13.16593498154398
ONEWEB-0273             
1 48991U 21060AA  24251.34109634 -.00000777  00000+0 -20658-2 0  9999
2 48991  87.9175 357.7889 0001971 106.5643 253.5705 13.16590766154348
ONEWEB-0274             
1 48992U 21060AB  24251.59441430 -.00000570  00000+0 -15243-2 0  9995
2 48992  87.9178 357.7572 0001752 110.6717 249.4602 13.16586467154417
ONEWEB-0275             
1 48993U 21060AC  24251.58332743  .00001680  00000+0  43596-2 0  9994
2 48993  87.9175 357.7362 0001640 101.8751 258.2564 13.16586180154347
ONEWEB-0276             
1 48994U 21060AD  24251.54058318  .00000124  00000+0  29114-3 0  9997
2 48994  87.9176 357.7410 0001880 109.2054 250.9280 13.16592525154352
ONEWEB-0277             
1 48995U 21060AE  24251.55324597 -.00000404  00000+0 -10905-2 0  9994
2 48995  87.9172 357.7761 0001678 118.6121 241.5179 13.16593646154349
ONEWEB-0278             
1 48996U 21060AF  24251.54375394  .00000181  00000+0  43961-3 0  9994
2 48996  87.9175 357.7374 0002070  98.0761 262.0605 13.16592997155780
ONEWEB-0279             
1 48997U 21060AG  24251.32367503 -.00000255  00000+0 -70069-3 0  9997
2 48997  87.9173 357.7779 0001528 109.7400 250.3896 13.16591651154377
ONEWEB-0280             
1 48998U 21060AH  24251.56592175 -.00000011  00000+0 -63204-4 0  9993
2 48998  87.9175 357.7322 0002000 106.1279 254.0072 13.16592882154346
ONEWEB-0281             
1 48999U 21060AJ  24251.57224697  .00000119  00000+0  27731-3 0  9997
2 48999  87.9175 357.7327 0001635  97.2999 262.8318 13.16591941154417
ONEWEB-0282             
1 49000U 21060AK  24251.52633320  .00000196  00000+0  48028-3 0  9990
2 49000  87.9176 357.7583 0001894 109.7018 250.4317 13.16592280154389
ONEWEB-0283             
1 49001U 21060AL  24251.59125401  .00000112  00000+0  25901-3 0  9997
2 49001  87.9174 357.7509 0001627 109.0696 251.0611 13.16592824154406
ONEWEB-0284             
1 49002U 21060AM  24251.81289803 -.00000334  00000+0 -90845-3 0  9997
2 49002  87.9168 357.6859 0001948 105.9910 254.1435 13.16593306155727
ONEWEB-0285             
1 49075U 21075A   24251.57804064 -.00000230  00000+0 -67472-3 0  9993
2 49075  87.8892 119.6506 0001734  80.6384 279.4940 13.12439508150266
ONEWEB-0286             
1 49076U 21075B   24251.54953013  .00000513  00000+0  13919-2 0  9998
2 49076  87.8891 119.6566 0001863  69.7550 290.3778 13.12441871149612
ONEWEB-0287             
1 49077U 21075C   24251.43156207  .00000099  00000+0  22132-3 0  9994
2 49077  87.9154 134.8866 0002029  77.8673 282.2685 13.17648538148327
ONEWEB-0288             
1 49078U 21075D   24251.68818933  .00002643  00000+0  73075-2 0  9991
2 49078  87.8896 119.6316 0002093  83.9667 276.1700 13.12464625151246
ONEWEB-0289             
1 49079U 21075E   24251.61250405  .00000091  00000+0  20003-3 0  9998
2 49079  87.9157 134.8792 0001741  79.6888 280.4439 13.17652591148925
ONEWEB-0290             
1 49080U 21075F   24251.74662110  .00000059  00000+0  11752-3 0  9999
2 49080  87.9154 134.8123 0002038  98.5753 261.5610 13.17651547149330
ONEWEB-0291             
1 49081U 21075G   24251.57858788  .00000065  00000+0  13409-3 0  9997
2 49081  87.9147 134.8626 0002031  78.8212 281.3148 13.17648270148328
ONEWEB-0293             
1 49082U 21075H   24251.60444329  .00000078  00000+0  16796-3 0  9990
2 49082  87.9153 134.8754 0002035  80.3778 279.7583 13.17649645148351
ONEWEB-0294             
1 49083U 21075J   24251.61846857  .00000342  00000+0  91483-3 0  9994
2 49083  87.8891 119.6454 0002296  86.2590 273.8801 13.12442196149631
ONEWEB-0295             
1 49084U 21075K   24251.60360867  .00000029  00000+0  40757-4 0  9997
2 49084  87.9156 134.8531 0002147  71.9451 288.1914 13.17646383148311
ONEWEB-0296             
1 49085U 21075L   24251.59900040 -.00000225  00000+0 -66094-3 0  9990
2 49085  87.8889 119.6517 0002430  76.7151 283.4249 13.12442271149634
ONEWEB-0297             
1 49086U 21075M   24251.70605787  .00000495  00000+0  13416-2 0  9990
2 49086  87.8900 119.6435 0001701  75.2207 284.9110 13.12443526151241
ONEWEB-0298             
1 49087U 21075N   24251.60928509  .00000081  00000+0  17572-3 0  9999
2 49087  87.9155 134.8709 0001840  70.2747 289.8583 13.17648211148344
ONEWEB-0299             
1 49088U 21075P   24251.61090335  .00000119  00000+0  27386-3 0  9994
2 49088  87.9151 134.8367 0001907  70.2241 289.9096 13.17649917148326
ONEWEB-0300             
1 49089U 21075Q   24251.62171198  .00000385  00000+0  10344-2 0  9993
2 49089  87.8890 119.6424 0001336  74.3236 285.8040 13.12441880150260
ONEWEB-0301             
1 49090U 21075R   24251.68171622 -.00000037  00000+0 -13806-3 0  9996
2 49090  87.8892 119.6344 0001373  75.1351 284.9929 13.12434952150621
ONEWEB-0302             
1 49091U 21075S   24251.59250812 -.00000345  00000+0 -99342-3 0  9997
2 49091  87.8892 119.6508 0001957  80.4246 279.7104 13.12442862149606
ONEWEB-0304             
1 49092U 21075T   24251.58504753  .00000065  00000+0  13418-3 0  9990
2 49092  87.9153 134.8605 0002033  75.8540 284.2817 13.17651102148296
ONEWEB-0305             
1 49093U 21075U   24251.42510143  .00000077  00000+0  16402-3 0  9993
2 49093  87.9150 134.8770 0002077  66.6035 293.5315 13.17649970148300
ONEWEB-0308             
1 49094U 21075V   24251.58603057 -.00000398  00000+0 -11418-2 0  9997
2 49094  87.8889 119.6505 0001646  78.2740 281.8574 13.12443058149615
ONEWEB-0309             
1 49095U 21075W   24251.58181795  .00000113  00000+0  25771-3 0  9999
2 49095  87.9154 134.8533 0002225  86.9900 273.1486 13.17651998148298
ONEWEB-0310             
1 49096U 21075X   24251.60060638 -.00000573  00000+0 -16289-2 0  9990
2 49096  87.8899 119.6630 0001797  82.9490 277.1843 13.12442468150240
ONEWEB-0311             
1 49097U 21075Y   24251.58828707  .00000089  00000+0  19600-3 0  9998
2 49097  87.9154 134.8529 0001997  65.6049 294.5291 13.17649411148342
ONEWEB-0312             
1 49098U 21075Z   24251.60282570  .00000039  00000+0  68062-4 0  9996
2 49098  87.9155 134.8816 0002260  74.4966 285.6415 13.17649885148325
ONEWEB-0313             
1 49099U 21075AA  24251.58019570  .00000076  00000+0  16312-3 0  9993
2 49099  87.9153 134.8890 0001999  73.6638 286.4713 13.17650257148315
ONEWEB-0314             
1 49100U 21075AB  24251.42186218  .00000144  00000+0  33702-3 0  9991
2 49100  87.9149 134.8752 0002223  72.4805 287.6569 13.17650830148267
ONEWEB-0315             
1 49101U 21075AC  24251.57466716 -.00000146  00000+0 -44018-3 0  9998
2 49101  87.8888 119.6458 0001711  63.9549 296.1755 13.12437142150227
ONEWEB-0316             
1 49102U 21075AD  24251.55358158  .00000058  00000+0  11428-3 0  9996
2 49102  87.9078 104.3865 0001785  74.8915 285.2414 13.18686100151859
ONEWEB-0317             
1 49103U 21075AE  24251.87312554  .00000187  00000+0  48537-3 0  9996
2 49103  87.8890 119.5972 0001585  94.4604 265.6706 13.12439789151274
ONEWEB-0318             
1 49104U 21075AF  24251.55042181  .00000065  00000+0  13319-3 0  9993
2 49104  87.9076 104.3785 0001805  71.3673 288.7655 13.18686231151812
ONEWEB-0319             
1 49105U 21075AG  24251.43802648  .00000141  00000+0  32880-3 0  9992
2 49105  87.9155 134.9081 0002086  64.4448 295.6899 13.17648260148300
ONEWEB-0323             
1 49106U 21075AH  24251.17726607  .00000381  00000+0  10229-2 0  9992
2 49106  87.8891 119.7226 0001835  75.2271 284.9060 13.12442920149553
ONEWEB-0329             
1 49107U 21075AJ  24251.44610253  .00000157  00000+0  37235-3 0  9990
2 49107  87.9155 134.9106 0001968  74.4099 285.7250 13.17648595148280
ONEWEB-0330             
1 49108U 21075AK  24251.37177710  .00000087  00000+0  19006-3 0  9997
2 49108  87.9156 134.9264 0002046  76.8353 283.3007 13.17647359148319
ONEWEB-0292             
1 49186U 21083A   24251.57855527 -.00000309  00000+0 -88127-3 0  9992
2 49186  87.8859  89.1293 0001647  78.7545 281.3769 13.13467055145912
ONEWEB-0303             
1 49187U 21083B   24251.85076868 -.00000002  00000+0 -38574-4 0  9999
2 49187  87.9076 104.3186 0001708  73.9924 286.1396 13.18685917145948
ONEWEB-0306             
1 49188U 21083C   24251.61363581 -.00000814  00000+0 -20976-2 0  9991
2 49188  87.9077 104.3527 0001763  87.8002 272.3332 13.18690112144670
ONEWEB-0307             
1 49189U 21083D   24251.57300657 -.00000202  00000+0 -58791-3 0  9990
2 49189  87.8859  89.1313 0001941  92.9933 267.1418 13.13466279145914
ONEWEB-0320             
1 49190U 21083E   24251.54409840  .00000078  00000+0  16416-3 0  9990
2 49190  87.9077 104.3920 0001735  82.8102 277.3227 13.18686144145900
ONEWEB-0321             
1 49191U 21083F   24251.48038486 -.00000038  00000+0 -12603-3 0  9990
2 49191  87.9223  43.2716 0001654 101.0071 259.1248 13.20771510151337
ONEWEB-0322             
1 49192U 21083G   24251.56905162 -.00000139  00000+0 -41557-3 0  9996
2 49192  87.8860  89.1212 0001711 100.9047 259.2274 13.13465537145906
ONEWEB-0324             
1 49193U 21083H   24251.60574023  .00000072  00000+0  14861-3 0  9992
2 49193  87.9076 104.3610 0001987  78.1928 281.9427 13.18687469144656
ONEWEB-0325             
1 49194U 21083J   24251.83811720  .00000157  00000+0  36441-3 0  9998
2 49194  87.9077 104.3295 0001680  82.8879 277.2444 13.18685728145973
ONEWEB-0326             
1 49195U 21083K   24251.54883979  .00000073  00000+0  15114-3 0  9993
2 49195  87.9074 104.3839 0001912  68.1298 292.0038 13.18686574144642
ONEWEB-0327             
1 49196U 21083L   24251.83494213  .00000209  00000+0  50814-3 0  9992
2 49196  87.9077 104.3441 0001709  69.3250 290.8065 13.17170947145985
